{"type": "FeatureCollection", "features": [ {"type": "Feature", "properties": {"norad_id": 66416, "name": "HULIANWANG DIGUI 13E", "group": "last-30-days", "lat": 47.8665227610951, "lon": 47.892383823414626, "alt_km": 812.6322940594955, "timestamp": "2025-12-04T15:47:52.868341+00:00", "meta": {"OBJECT_NAME": "HULIANWANG DIGUI 13E", "OBJECT_ID": "2025-258E", "EPOCH": "2025-12-02T04:20:20.565312", "MEAN_MOTION": 14.23468154, "ECCENTRICITY": 0.0012751, "INCLINATION": 50.0045, "RA_OF_ASC_NODE": 306.4445, "ARG_OF_PERICENTER": 327.4493, "MEAN_ANOMALY": 32.5632, "EPHEMERIS_TYPE": 0, "CLASSIFICATION_TYPE": "U", "NORAD_CAT_ID": 66416, "ELEMENT_SET_NO": 999, "REV_AT_EPOCH": 315, "BSTAR": 0.00010445686, "MEAN_MOTION_DOT": 8e-07, "MEAN_MOTION_DDOT": 0}, "tle": {"line1": "1 66416U 25258E   25336.18079358  .00000080  00000+0  10446-3 0  9990", "line2": "2 66416  50.0045 306.4445 0012751 327.4493  32.5632 14.23468154  3151"}}, "geometry": {"type": "Point", "coordinates": [47.892383823414626, 47.8665227610951]}}, {"type": "Feature", "properties": {"norad_id": 66417, "name": "HULIANWANG DIGUI 13F", "group": "last-30-days", "lat": 45.455257149982394, "lon": 57.43617973917684, "alt_km": 813.7887308836307, "timestamp": "2025-12-04T15:47:52.868353+00:00", "meta": {"OBJECT_NAME": "HULIANWANG DIGUI 13F", "OBJECT_ID": "2025-258F", "EPOCH": "2025-12-04T06:51:09.793728", "MEAN_MOTION": 14.2347869, "ECCENTRICITY": 0.00123878, "INCLINATION": 49.9998, "RA_OF_ASC_NODE": 297.5545, "ARG_OF_PERICENTER": 332.9424, "MEAN_ANOMALY": 27.0842, "EPHEMERIS_TYPE": 0, "CLASSIFICATION_TYPE": "U", "NORAD_CAT_ID": 66417, "ELEMENT_SET_NO": 999, "REV_AT_EPOCH": 345, "BSTAR": 0.00016022974, "MEAN_MOTION_DOT": 2.08e-06, "MEAN_MOTION_DDOT": 0}, "tle": {"line1": "1 66417U 25258F   25338.28553002  .00000208  00000+0  16023-3 0  9996", "line2": "2 66417  49.9998 297.5545 0012387 332.9424  27.0842 14.23478690  3458"}}, "geometry": {"type": "Point", "coordinates": [57.43617973917684, 45.455257149982394]}}, {"type": "Feature", "properties": {"norad_id": 66418, "name": "HULIANWANG DIGUI 13G", "group": "last-30-days", "lat": 34.07302307695419, "lon": 81.34515597322688, "alt_km": 817.4923478528799, "timestamp": "2025-12-04T15:47:52.868363+00:00", "meta": {"OBJECT_NAME": "HULIANWANG DIGUI 13G", "OBJECT_ID": "2025-258G", "EPOCH": "2025-12-04T08:26:12.395040", "MEAN_MOTION": 14.23490287, "ECCENTRICITY": 0.0012426, "INCLINATION": 50.0017, "RA_OF_ASC_NODE": 297.2376, "ARG_OF_PERICENTER": 328.9681, "MEAN_ANOMALY": 31.0496, "EPHEMERIS_TYPE": 0, "CLASSIFICATION_TYPE": "U", "NORAD_CAT_ID": 66418, "ELEMENT_SET_NO": 999, "REV_AT_EPOCH": 346, "BSTAR": 0.0001571348, "MEAN_MOTION_DOT": 2.01e-06, "MEAN_MOTION_DDOT": 0}, "tle": {"line1": "1 66418U 25258G   25338.35153235  .00000201  00000+0  15713-3 0  9997", "line2": "2 66418  50.0017 297.2376 0012426 328.9681  31.0496 14.23490287  3464"}}, "geometry": {"type": "Point", "coordinates": [81.34515597322688, 34.07302307695419]}}, {"type": "Feature", "properties": {"norad_id": 66419, "name": "HULIANWANG DIGUI 13H", "group": "last-30-days", "lat": 29.053546171626778, "lon": 88.1270758233936, "alt_km": 818.2434340732825, "timestamp": "2025-12-04T15:47:52.868375+00:00", "meta": {"OBJECT_NAME": "HULIANWANG DIGUI 13H", "OBJECT_ID": "2025-258H", "EPOCH": "2025-12-04T08:24:03.585600", "MEAN_MOTION": 14.23507327, "ECCENTRICITY": 0.00121062, "INCLINATION": 50.0008, "RA_OF_ASC_NODE": 297.2272, "ARG_OF_PERICENTER": 330.2967, "MEAN_ANOMALY": 29.7257, "EPHEMERIS_TYPE": 0, "CLASSIFICATION_TYPE": "U", "NORAD_CAT_ID": 66419, "ELEMENT_SET_NO": 999, "REV_AT_EPOCH": 346, "BSTAR": 0.00015281019, "MEAN_MOTION_DOT": 1.91e-06, "MEAN_MOTION_DDOT": 0}, "tle": {"line1": "1 66419U 25258H   25338.35004150  .00000191  00000+0  15281-3 0  9997", "line2": "2 66419  50.0008 297.2272 0012106 330.2967  29.7257 14.23507327  3461"}}, "geometry": {"type": "Point", "coordinates": [88.1270758233936, 29.053546171626778]}}, {"type": "Feature", "properties": {"norad_id": 66420, "name": "HULIANWANG DIGUI 13J", "group": "last-30-days", "lat": 25.031997476492396, "lon": 92.84681492301814, "alt_km": 818.5050927411257, "timestamp": "2025-12-04T15:47:52.868386+00:00", "meta": {"OBJECT_NAME": "HULIANWANG DIGUI 13J", "OBJECT_ID": "2025-258J", "EPOCH": "2025-12-04T08:22:25.405824", "MEAN_MOTION": 14.23474895, "ECCENTRICITY": 0.00114661, "INCLINATION": 50.0026, "RA_OF_ASC_NODE": 297.2317, "ARG_OF_PERICENTER": 337.3927, "MEAN_ANOMALY": 22.6479, "EPHEMERIS_TYPE": 0, "CLASSIFICATION_TYPE": "U", "NORAD_CAT_ID": 66420, "ELEMENT_SET_NO": 999, "REV_AT_EPOCH": 345, "BSTAR": 0.00014890506, "MEAN_MOTION_DOT": 1.82e-06, "MEAN_MOTION_DDOT": 0}, "tle": {"line1": "1 66420U 25258J   25338.34890516  .00000182  00000+0  14891-3 0  9993", "line2": "2 66420  50.0026 297.2317 0011466 337.3927  22.6479 14.23474895  3455"}}, "geometry": {"type": "Point", "coordinates": [92.84681492301814, 25.031997476492396]}}, {"type": "Feature", "properties": {"norad_id": 66421, "name": "CZ-12 R/B", "group": "last-30-days", "lat": -36.70318812415376, "lon": 151.76829155933135, "alt_km": 709.5299938768485, "timestamp": "2025-12-04T15:47:52.868396+00:00", "meta": {"OBJECT_NAME": "CZ-12 R/B", "OBJECT_ID": "2025-258K", "EPOCH": "2025-12-04T08:04:38.890272", "MEAN_MOTION": 14.42317083, "ECCENTRICITY": 0.00645893, "INCLINATION": 49.9969, "RA_OF_ASC_NODE": 294.4095, "ARG_OF_PERICENTER": 219.2024, "MEAN_ANOMALY": 140.4208, "EPHEMERIS_TYPE": 0, "CLASSIFICATION_TYPE": "U", "NORAD_CAT_ID": 66421, "ELEMENT_SET_NO": 999, "REV_AT_EPOCH": 350, "BSTAR": 4.3542637e-05, "MEAN_MOTION_DOT": -2.2e-07, "MEAN_MOTION_DDOT": 0}, "tle": {"line1": "1 66421U 25258K   25338.33656123 -.00000022  00000+0  43543-4 0  9998", "line2": "2 66421  49.9969 294.4095 0064589 219.2024 140.4208 14.42317083  3502"}}, "geometry": {"type": "Point", "coordinates": [151.76829155933135, -36.70318812415376]}}, {"type": "Feature", "properties": {"norad_id": 66422, "name": "STARLINK-35617", "group": "last-30-days", "lat": 38.260454969424025, "lon": 152.48556727283116, "alt_km": 434.1474281673218, "timestamp": "2025-12-04T15:47:52.868406+00:00", "meta": {"OBJECT_NAME": "STARLINK-35617", "OBJECT_ID": "2025-259A", "EPOCH": "2025-12-04T08:00:01.999872", "MEAN_MOTION": 15.4378543, "ECCENTRICITY": 0.00018391, "INCLINATION": 43.0009, "RA_OF_ASC_NODE": 96.5558, "ARG_OF_PERICENTER": 263.4046, "MEAN_ANOMALY": 154.895, "EPHEMERIS_TYPE": 0, "CLASSIFICATION_TYPE": "U", "NORAD_CAT_ID": 66422, "ELEMENT_SET_NO": 999, "REV_AT_EPOCH": 492, "BSTAR": -0.045741454, "MEAN_MOTION_DOT": -0.01900615, "MEAN_MOTION_DDOT": 0}, "tle": {"line1": "1 66422U 25259A   25338.33335648 -.01900615  00000+0 -45741-1 0  9994", "line2": "2 66422  43.0009  96.5558 0001839 263.4046 154.8950 15.43785430  4929"}}, "geometry": {"type": "Point", "coordinates": [152.48556727283116, 38.260454969424025]}}, {"type": "Feature", "properties": {"norad_id": 66423, "name": "STARLINK-35618", "group": "last-30-days", "lat": 41.23662561364713, "lon": 164.81043459959233, "alt_km": 429.75466062152464, "timestamp": "2025-12-04T15:47:52.868417+00:00", "meta": {"OBJECT_NAME": "STARLINK-35618", "OBJECT_ID": "2025-259B", "EPOCH": "2025-12-04T08:00:01.999872", "MEAN_MOTION": 15.45178729, "ECCENTRICITY": 0.00016503, "INCLINATION": 43.0008, "RA_OF_ASC_NODE": 96.5341, "ARG_OF_PERICENTER": 273.0967, "MEAN_ANOMALY": 153.5561, "EPHEMERIS_TYPE": 0, "CLASSIFICATION_TYPE": "U", "NORAD_CAT_ID": 66423, "ELEMENT_SET_NO": 999, "REV_AT_EPOCH": 492, "BSTAR": -0.046930467, "MEAN_MOTION_DOT": -0.0202976, "MEAN_MOTION_DDOT": 0}, "tle": {"line1": "1 66423U 25259B   25338.33335648 -.02029760  00000+0 -46930-1 0  9990", "line2": "2 66423  43.0008  96.5341 0001650 273.0967 153.5561 15.45178729  4922"}}, "geometry": {"type": "Point", "coordinates": [164.81043459959233, 41.23662561364713]}}, {"type": "Feature", "properties": {"norad_id": 66424, "name": "STARLINK-35588", "group": "last-30-days", "lat": 42.66188281325146, "lon": 176.0916303492193, "alt_km": 425.4674937772852, "timestamp": "2025-12-04T15:47:52.868429+00:00", "meta": {"OBJECT_NAME": "STARLINK-35588", "OBJECT_ID": "2025-259C", "EPOCH": "2025-12-04T08:00:01.999872", "MEAN_MOTION": 15.46528477, "ECCENTRICITY": 0.0001344, "INCLINATION": 43.0006, "RA_OF_ASC_NODE": 96.5172, "ARG_OF_PERICENTER": 277.5381, "MEAN_ANOMALY": 156.057, "EPHEMERIS_TYPE": 0, "CLASSIFICATION_TYPE": "U", "NORAD_CAT_ID": 66424, "ELEMENT_SET_NO": 999, "REV_AT_EPOCH": 492, "BSTAR": -0.04565792, "MEAN_MOTION_DOT": -0.02064911, "MEAN_MOTION_DDOT": 0}, "tle": {"line1": "1 66424U 25259C   25338.33335648 -.02064911  00000+0 -45658-1 0  9994", "line2": "2 66424  43.0006  96.5172 0001344 277.5381 156.0570 15.46528477  4920"}}, "geometry": {"type": "Point", "coordinates": [176.0916303492193, 42.66188281325146]}}, {"type": "Feature", "properties": {"norad_id": 66425, "name": "STARLINK-35555", "group": "last-30-days", "lat": 42.97445142665816, "lon": -174.25671238055145, "alt_km": 421.60215812383376, "timestamp": "2025-12-04T15:47:52.868440+00:00", "meta": {"OBJECT_NAME": "STARLINK-35555", "OBJECT_ID": "2025-259D", "EPOCH": "2025-12-04T08:00:01.999872", "MEAN_MOTION": 15.47868704, "ECCENTRICITY": 0.0001418, "INCLINATION": 43.0004, "RA_OF_ASC_NODE": 96.5021, "ARG_OF_PERICENTER": 277.6249, "MEAN_ANOMALY": 161.4946, "EPHEMERIS_TYPE": 0, "CLASSIFICATION_TYPE": "U", "NORAD_CAT_ID": 66425, "ELEMENT_SET_NO": 999, "REV_AT_EPOCH": 492, "BSTAR": -0.043979936, "MEAN_MOTION_DOT": -0.02082588, "MEAN_MOTION_DDOT": 0}, "tle": {"line1": "1 66425U 25259D   25338.33335648 -.02082588  00000+0 -43980-1 0  9991", "line2": "2 66425  43.0004  96.5021 0001418 277.6249 161.4946 15.47868704  4926"}}, "geometry": {"type": "Point", "coordinates": [-174.25671238055145, 42.97445142665816]}}]}